{"type": "FeatureCollection", "features": [{"type": "Feature", "properties": {"norad_id": 2807, "name": "OPS 7218 (TRANSIT 16)", "group": "nnss", "lat": 65.18620996100807, "lon": -5.722145758641842, "alt_km": 1047.2523686836885, "timestamp": "2025-12-26T03:50:12.361761+00:00", "meta": {"OBJECT_NAME": "OPS 7218 (TRANSIT 16)", "OBJECT_ID": "1967-048A", "EPOCH": "2025-12-25T13:52:36.167232", "MEAN_MOTION": 13.50724852, "ECCENTRICITY": 0.0022141, "INCLINATION": 89.6734, "RA_OF_ASC_NODE": 353.5902, "ARG_OF_PERICENTER": 79.9207, "MEAN_ANOMALY": 38.6228, "EPHEMERIS_TYPE": 0, "CLASSIFICATION_TYPE": "U", "NORAD_CAT_ID": 2807, "ELEMENT_SET_NO": 999, "REV_AT_EPOCH": 88449, "BSTAR": 0.00014159, "MEAN_MOTION_DOT": 1.02e-06, "MEAN_MOTION_DDOT": 0}, "tle": {"line1": "1 02807U 67048A   25359.57819638  .00000102  00000+0  14159-3 0  9998", "line2": "2 02807  89.6734 353.5902 0022141  79.9207  38.6228 13.50724852884496"}}, "geometry": {"type": "Point", "coordinates": [-5.722145758641842, 65.18620996100807]}}, {"type": "Feature", "properties": {"norad_id": 2965, "name": "OPS 4947 (TRANSIT 17)", "group": "nnss", "lat": -82.07229509042826, "lon": -151.18037358673837, "alt_km": 1053.3712846262233, "timestamp": "2025-12-26T03:50:12.361784+00:00", "meta": {"OBJECT_NAME": "OPS 4947 (TRANSIT 17)", "OBJECT_ID": "1967-092A", "EPOCH": "2025-12-25T14:41:33.017280", "MEAN_MOTION": 13.53456966, "ECCENTRICITY": 0.0047171, "INCLINATION": 89.2485, "RA_OF_ASC_NODE": 23.4532, "ARG_OF_PERICENTER": 196.3512, "MEAN_ANOMALY": 278.3032, "EPHEMERIS_TYPE": 0, "CLASSIFICATION_TYPE": "U", "NORAD_CAT_ID": 2965, "ELEMENT_SET_NO": 999, "REV_AT_EPOCH": 87271, "BSTAR": 0.00018696, "MEAN_MOTION_DOT": 1.38e-06, "MEAN_MOTION_DDOT": 0}, "tle": {"line1": "1 02965U 67092A   25359.61218770  .00000138  00000+0  18696-3 0  9996", "line2": "2 02965  89.2485  23.4532 0047171 196.3512 278.3032 13.53456966872714"}}, "geometry": {"type": "Point", "coordinates": [-151.18037358673837, -82.07229509042826]}}, {"type": "Feature", "properties": {"norad_id": 3133, "name": "OPS 7034 (TRANSIT 18)", "group": "nnss", "lat": -40.57337476153183, "lon": -86.29837592278257, "alt_km": 1128.2489353145047, "timestamp": "2025-12-26T03:50:12.361798+00:00", "meta": {"OBJECT_NAME": "OPS 7034 (TRANSIT 18)", "OBJECT_ID": "1968-012A", "EPOCH": "2025-12-25T19:27:50.342976", "MEAN_MOTION": 13.51568761, "ECCENTRICITY": 0.007503, "INCLINATION": 90.0285, "RA_OF_ASC_NODE": 273.6762, "ARG_OF_PERICENTER": 131.6104, "MEAN_ANOMALY": 291.5955, "EPHEMERIS_TYPE": 0, "CLASSIFICATION_TYPE": "U", "NORAD_CAT_ID": 3133, "ELEMENT_SET_NO": 999, "REV_AT_EPOCH": 57095, "BSTAR": 0.00020971, "MEAN_MOTION_DOT": 1.49e-06, "MEAN_MOTION_DDOT": 0}, "tle": {"line1": "1 03133U 68012A   25359.81099934  .00000149  00000+0  20971-3 0  9999", "line2": "2 03133  90.0285 273.6762 0075030 131.6104 291.5955 13.51568761570955"}}, "geometry": {"type": "Point", "coordinates": [-86.29837592278257, -40.57337476153183]}}, {"type": "Feature", "properties": {"norad_id": 4507, "name": "NNSS 19 (TRANSIT 19)", "group": "nnss", "lat": -80.18207633264691, "lon": -125.42992102034927, "alt_km": 960.2888753698317, "timestamp": "2025-12-26T03:50:12.361810+00:00", "meta": {"OBJECT_NAME": "NNSS 19 (TRANSIT 19)", "OBJECT_ID": "1970-067A", "EPOCH": "2025-12-25T17:33:54.763776", "MEAN_MOTION": 13.51317732, "ECCENTRICITY": 0.0170218, "INCLINATION": 90.0047, "RA_OF_ASC_NODE": 234.5427, "ARG_OF_PERICENTER": 255.346, "MEAN_ANOMALY": 102.8768, "EPHEMERIS_TYPE": 0, "CLASSIFICATION_TYPE": "U", "NORAD_CAT_ID": 4507, "ELEMENT_SET_NO": 999, "REV_AT_EPOCH": 72397, "BSTAR": 0.00012964, "MEAN_MOTION_DOT": 1e-06, "MEAN_MOTION_DDOT": 0}, "tle": {"line1": "1 04507U 70067A   25359.73188384  .00000100  00000+0  12964-3 0  9997", "line2": "2 04507  90.0047 234.5427 0170218 255.3460 102.8768 13.51317732723972"}}, "geometry": {"type": "Point", "coordinates": [-125.42992102034927, -80.18207633264691]}}, {"type": "Feature", "properties": {"norad_id": 6909, "name": "NNSS 20 (TRANSIT 20)", "group": "nnss", "lat": -61.75573513966592, "lon": 75.12157580616801, "alt_km": 1107.197745592056, "timestamp": "2025-12-26T03:50:12.361821+00:00", "meta": {"OBJECT_NAME": "NNSS 20 (TRANSIT 20)", "OBJECT_ID": "1973-081A", "EPOCH": "2025-12-25T17:54:30.671712", "MEAN_MOTION": 13.71441138, "ECCENTRICITY": 0.0156091, "INCLINATION": 89.8559, "RA_OF_ASC_NODE": 254.8594, "ARG_OF_PERICENTER": 39.7617, "MEAN_ANOMALY": 321.4863, "EPHEMERIS_TYPE": 0, "CLASSIFICATION_TYPE": "U", "NORAD_CAT_ID": 6909, "ELEMENT_SET_NO": 999, "REV_AT_EPOCH": 80539, "BSTAR": 0.00027867, "MEAN_MOTION_DOT": 2.84e-06, "MEAN_MOTION_DDOT": 0}, "tle": {"line1": "1 06909U 73081A   25359.74618833  .00000284  00000+0  27867-3 0  9993", "line2": "2 06909  89.8559 254.8594 0156091  39.7617 321.4863 13.71441138805397"}}, "geometry": {"type": "Point", "coordinates": [75.12157580616801, -61.75573513966592]}}, {"type": "Feature", "properties": {"norad_id": 10457, "name": "TRANSAT", "group": "nnss", "lat": 10.207069407993169, "lon": -101.94196285222161, "alt_km": 1058.8501790960727, "timestamp": "2025-12-26T03:50:12.361831+00:00", "meta": {"OBJECT_NAME": "TRANSAT", "OBJECT_ID": "1977-106A", "EPOCH": "2025-12-25T18:39:52.188768", "MEAN_MOTION": 13.48945596, "ECCENTRICITY": 0.0026569, "INCLINATION": 89.6475, "RA_OF_ASC_NODE": 78.1351, "ARG_OF_PERICENTER": 152.5856, "MEAN_ANOMALY": 322.1693, "EPHEMERIS_TYPE": 0, "CLASSIFICATION_TYPE": "U", "NORAD_CAT_ID": 10457, "ELEMENT_SET_NO": 999, "REV_AT_EPOCH": 36919, "BSTAR": 0.00011911, "MEAN_MOTION_DOT": 8.5e-07, "MEAN_MOTION_DDOT": 0}, "tle": {"line1": "1 10457U 77106A   25359.77768737  .00000085  00000+0  11911-3 0  9992", "line2": "2 10457  89.6475  78.1351 0026569 152.5856 322.1693 13.48945596369191"}}, "geometry": {"type": "Point", "coordinates": [-101.94196285222161, 10.207069407993169]}}, {"type": "Feature", "properties": {"norad_id": 12458, "name": "NOVA 1", "group": "nnss", "lat": -87.22052006806861, "lon": 88.15408875415615, "alt_km": 1190.7076466407689, "timestamp": "2025-12-26T03:50:12.361842+00:00", "meta": {"OBJECT_NAME": "NOVA 1", "OBJECT_ID": "1981-044A", "EPOCH": "2025-12-25T19:47:26.126880", "MEAN_MOTION": 13.23279888, "ECCENTRICITY": 0.0015707, "INCLINATION": 89.8525, "RA_OF_ASC_NODE": 91.2002, "ARG_OF_PERICENTER": 71.8269, "MEAN_ANOMALY": 44.8452, "EPHEMERIS_TYPE": 0, "CLASSIFICATION_TYPE": "U", "NORAD_CAT_ID": 12458, "ELEMENT_SET_NO": 999, "REV_AT_EPOCH": 15359, "BSTAR": 0.00013431, "MEAN_MOTION_DOT": 6.6e-07, "MEAN_MOTION_DDOT": 0}, "tle": {"line1": "1 12458U 81044A   25359.82460795  .00000066  00000+0  13431-3 0  9998", "line2": "2 12458  89.8525  91.2002 0015707  71.8269  44.8452 13.23279888153597"}}, "geometry": {"type": "Point", "coordinates": [88.15408875415615, -87.22052006806861]}}, {"type": "Feature", "properties": {"norad_id": 15362, "name": "NOVA 3", "group": "nnss", "lat": 45.797697690069164, "lon": -99.18232434046395, "alt_km": 1190.2208377069846, "timestamp": "2025-12-26T03:50:12.361853+00:00", "meta": {"OBJECT_NAME": "NOVA 3", "OBJECT_ID": "1984-110A", "EPOCH": "2025-12-25T18:40:43.211424", "MEAN_MOTION": 13.23046286, "ECCENTRICITY": 0.0029854, "INCLINATION": 90.1217, "RA_OF_ASC_NODE": 80.688, "ARG_OF_PERICENTER": 294.3065, "MEAN_ANOMALY": 183.5086, "EPHEMERIS_TYPE": 0, "CLASSIFICATION_TYPE": "U", "NORAD_CAT_ID": 15362, "ELEMENT_SET_NO": 999, "REV_AT_EPOCH": 98871, "BSTAR": 0.00014425, "MEAN_MOTION_DOT": 6.9e-07, "MEAN_MOTION_DDOT": 0}, "tle": {"line1": "1 15362U 84110A   25359.77827791  .00000069  00000+0  14425-3 0  9996", "line2": "2 15362  90.1217  80.6880 0029854 294.3065 183.5086 13.23046286988715"}}, "geometry": {"type": "Point", "coordinates": [-99.18232434046395, 45.797697690069164]}}, {"type": "Feature", "properties": {"norad_id": 15935, "name": "OSCAR 30", "group": "nnss", "lat": 54.1881991658424, "lon": -79.704279612194, "alt_km": 1093.441125998621, "timestamp": "2025-12-26T03:50:12.361864+00:00", "meta": {"OBJECT_NAME": "OSCAR 30", "OBJECT_ID": "1985-066A", "EPOCH": "2025-12-25T20:37:30.508896", "MEAN_MOTION": 13.36080597, "ECCENTRICITY": 0.0168801, "INCLINATION": 90.1653, "RA_OF_ASC_NODE": 100.0616, "ARG_OF_PERICENTER": 47.223, "MEAN_ANOMALY": 72.1814, "EPHEMERIS_TYPE": 0, "CLASSIFICATION_TYPE": "U", "NORAD_CAT_ID": 15935, "ELEMENT_SET_NO": 999, "REV_AT_EPOCH": 96628, "BSTAR": 0.00020089, "MEAN_MOTION_DOT": 1.21e-06, "MEAN_MOTION_DDOT": 0}, "tle": {"line1": "1 15935U 85066A   25359.85938089  .00000121  00000+0  20089-3 0  9997", "line2": "2 15935  90.1653 100.0616 0168801  47.2230  72.1814 13.36080597966281"}}, "geometry": {"type": "Point", "coordinates": [-79.704279612194, 54.1881991658424]}}, {"type": "Feature", "properties": {"norad_id": 15936, "name": "OSCAR 24", "group": "nnss", "lat": -13.669054380118745, "lon": -87.50078843564752, "alt_km": 1226.855887628557, "timestamp": "2025-12-26T03:50:12.361874+00:00", "meta": {"OBJECT_NAME": "OSCAR 24", "OBJECT_ID": "1985-066B", "EPOCH": "2025-12-25T18:26:58.709184", "MEAN_MOTION": 13.35937682, "ECCENTRICITY": 0.0169998, "INCLINATION": 90.1791, "RA_OF_ASC_NODE": 92.5359, "ARG_OF_PERICENTER": 53.9382, "MEAN_ANOMALY": 58.384, "EPHEMERIS_TYPE": 0, "CLASSIFICATION_TYPE": "U", "NORAD_CAT_ID": 15936, "ELEMENT_SET_NO": 999, "REV_AT_EPOCH": 96817, "BSTAR": 0.00016315, "MEAN_MOTION_DOT": 1e-06, "MEAN_MOTION_DDOT": 0}, "tle": {"line1": "1 15936U 85066B   25359.76873506  .00000100  00000+0  16315-3 0  9994", "line2": "2 15936  90.1791  92.5359 0169998  53.9382  58.3840 13.35937682968174"}}, "geometry": {"type": "Point", "coordinates": [-87.50078843564752, -13.669054380118745]}}]}